DMSP 5D-3 F16 (USA 172) 
1 28054U 03048A   26160.17644668  .00000005  00000+0  26386-4 0  9994
2 28054  98.9892 183.9516 0007366 161.1999 285.7375 14.14482499168353
METEOSAT-9 (MSG-2)      
1 28912U 05049B   26159.78055565  .00000137  00000+0  00000+0 0  9993
2 28912   9.3415  54.2486 0001700 350.9221 178.6781  1.00268863  6913
DMSP 5D-3 F17 (USA 191) 
1 29522U 06050A   26160.17931480  .00000034  00000+0  39822-4 0  9993
2 29522  98.7377 166.9132 0011316  79.9678 280.2772 14.14992014 11295
FENGYUN 3A              
1 32958U 08026A   26159.80074574  .00000078  00000+0  57556-4 0  9997
2 32958  98.6881 100.7909 0009230 145.8494 214.3278 14.19569456934210
GOES 14                 
1 35491U 09033A   26159.87184090 -.00000241  00000+0  00000+0 0  9993
2 35491   1.6675  83.1445 0001938   5.1308 269.4392  1.00113863  6501
DMSP 5D-3 F18 (USA 210) 
1 35951U 09057A   26160.15015801  .00000236  00000+0  14528-3 0  9993
2 35951  98.9034 140.9369 0009867 275.2032  84.8015 14.14892189858454
EWS-G2 (GOES 15)        
1 36411U 10008A   26160.14057097  .00000035  00000+0  00000+0 0  9998
2 36411   1.2545  82.9961 0005439  38.4522 250.2902  1.00275828 59551
COMS 1                  
1 36744U 10032A   26154.99142485 -.00000334  00000+0  00000+0 0  9999
2 36744   4.7750  75.5286 0001016   4.5847 297.3769  1.00270643 50953
FENGYUN 3B              
1 37214U 10059A   26160.24495439  .00000040  00000+0  44310-4 0  9996
2 37214  98.9623 206.2256 0021469 206.9006 230.0460 14.14840189806306
SUOMI NPP               
1 37849U 11061A   26160.16415578  .00000062  00000+0  50580-4 0  9991
2 37849  98.7953 101.0951 0001974  24.6640 335.4630 14.19515711757305
METEOSAT-10 (MSG-3)     
1 38552U 12035B   26160.05666905  .00000011  00000+0  00000+0 0  9996
2 38552   4.6514  61.0532 0001579 334.1660 242.8443  1.00275825 50773
METOP-B                 
1 38771U 12049A   26160.16500853  .00000075  00000+0  54073-4 0  9999
2 38771  98.6507 211.8240 0002699  38.3543 321.7826 14.21430470712121
INSAT-3D                
1 39216U 13038B   26159.93976105 -.00000322  00000+0  00000+0 0  9995
2 39216   1.9037  82.6473 0000772 318.4923 324.0091  1.00273615 46991
FENGYUN 3C              
1 39260U 13052A   26160.19905154  .00000079  00000+0  61426-4 0  9998
2 39260  98.4975 134.4409 0015617  49.4224 310.8308 14.15753188657435
METEOR-M 2              
1 40069U 14037A   26160.19152322  .00000293  00000+0  15298-3 0  9995
2 40069  98.5114 136.2133 0006985  63.6506 296.5388 14.21459992618183
HIMAWARI-8              
1 40267U 14060A   26159.84027778 -.00000259  00000+0  00000+0 0  9991
2 40267   0.0136 319.3355 0000818 138.5674 242.4936  1.00270961 42676
FENGYUN 2G              
1 40367U 14090A   26159.86966831 -.00000287  00000+0  00000+0 0  9990
2 40367   5.6171  72.9157 0003416 153.8778  83.1535  1.00276806 41916
METEOSAT-11 (MSG-4)     
1 40732U 15034A   26160.12982426  .00000080  00000+0  00000+0 0  9994
2 40732   3.1821  71.1557 0001707   6.3993 236.1386  1.00277816  7136
ELEKTRO-L 2             
1 41105U 15074A   26159.98248360 -.00000102  00000+0  00000+0 0  9993
2 41105   6.6726  70.6232 0000970 284.4222 241.5278  1.00271818 38424
SENTINEL-3A             
1 41335U 16011A   26160.15162983  .00000079  00000+0  50502-4 0  9996
2 41335  98.6249 227.6504 0001343 104.5625 255.5704 14.26737751536911
INSAT-3DR               
1 41752U 16054A   26160.14239100 -.00000060  00000+0  00000+0 0  9995
2 41752   0.0844  87.5464 0010442 186.6911 108.5347  1.00270533 35731
HIMAWARI-9              
1 41836U 16064A   26159.94192773 -.00000258  00000+0  00000+0 0  9998
2 41836   0.0279 160.6143 0000860 319.9078 256.6731  1.00272504 35126
GOES 16                 
1 41866U 16071A   26160.10723146 -.00000074  00000+0  00000+0 0  9999
2 41866   0.3190  85.6070 0000412 313.1860 152.6282  1.00270580 35024
FENGYUN 4A              
1 41882U 16077A   26159.93863439 -.00000340  00000+0  00000+0 0  9998
2 41882   2.3009  80.3737 0008284 151.4317 127.2017  1.00273733 34846
CYGFM05                 
1 41884U 16078A   26159.84150097  .00024058  00000+0  33038-3 0  9992
2 41884  34.9576 315.8393 0006902  64.4552 295.6886 15.56298875527459
CYGFM04                 
1 41885U 16078B   26160.02967235  .00025990  00000+0  29794-3 0  9995
2 41885  34.9328 282.6908 0005936 114.0364 246.0983 15.61053774527728
CYGFM02                 
1 41886U 16078C   26159.72664299  .00035163  00000+0  35915-3 0  9990
2 41886  34.9407 279.4912 0006918 112.4011 247.7448 15.63951377527843
CYGFM01                 
1 41887U 16078D   26159.83382443  .00024044  00000+0  32211-3 0  9993
2 41887  34.9406 317.0150 0006778  57.2874 302.8503 15.56961058527409
CYGFM08                 
1 41888U 16078E   26160.06354300  .00024978  00000+0  30283-3 0  9995
2 41888  34.9435 295.2833 0007787  95.2901 264.8713 15.59587692527705
CYGFM07                 
1 41890U 16078G   26159.76717485  .00029388  00000+0  35491-3 0  9996
2 41890  34.9448 285.6049 0006371 110.5312 249.6097 15.59678638527683
CYGFM03                 
1 41891U 16078H   26160.05816882  .00024776  00000+0  29948-3 0  9998
2 41891  34.9404 285.6073 0005860 100.3931 259.7455 15.59683603527700
